[{"OBJECT_NAME":"OBJECT L","OBJECT_ID":"2023-085L","EPOCH":"2026-03-09T23:02:21.999840","MEAN_MOTION":15.29079976,"ECCENTRICITY":0.0005428,"INCLINATION":97.486,"RA_OF_ASC_NODE":178.8598,"ARG_OF_PERICENTER":50.8528,"MEAN_ANOMALY":309.3193,"EPHEMERIS_TYPE":0,"CLASSIFICATION_TYPE":"U","NORAD_CAT_ID":57014,"ELEMENT_SET_NO":999,"REV_AT_EPOCH":15144,"BSTAR":0.00063462603,"MEAN_MOTION_DOT":0.00017871,"MEAN_MOTION_DDOT":0},{"OBJECT_NAME":"STARLINK-34686","OBJECT_ID":"2025-167K","EPOCH":"2026-03-09T06:54:19.261152","MEAN_MOTION":15.30199942,"ECCENTRICITY":0.00011335,"INCLINATION":53.1619,"RA_OF_ASC_NODE":28.8582,"ARG_OF_PERICENTER":84.6133,"MEAN_ANOMALY":275.4997,"EPHEMERIS_TYPE":0,"CLASSIFICATION_TYPE":"U","NORAD_CAT_ID":65087,"ELEMENT_SET_NO":999,"REV_AT_EPOCH":3341,"BSTAR":0.0010949998,"MEAN_MOTION_DOT":0.00032212,"MEAN_MOTION_DDOT":0}]
